ONEWEB-0706             
1 61611U 24188T   25167.53032781  .00000408  00000+0  11320-2 0  9998
2 61611  87.8832 109.1810 0002430  74.9030 285.2366 13.10371509 35498
ONEWEB-0707             
1 61612U 24188U   25167.54277201 -.00000175  00000+0 -53737-3 0  9990
2 61612  87.8812 109.1514 0002645  75.8012 284.3409 13.10370750 33477
ONEWEB-0708             
1 61613U 24188V   25167.56101804 -.00000571  00000+0 -16717-2 0  9994
2 61613  87.8876 109.1544 0002573  64.2811 295.8581 13.10373120 33685
